CTC1_L_00142001-01
1 10000U 26079CF  26075.70031250  .00000000  00000+0  00000-0 0  9992
2 10000  90.0000   0.0000 0000000   0.0000   0.0000 14.15679949    18
CTC1_L_00142001-02
1 10001U 25962YR  26075.70031250  .00000000  00000+0  00000-0 0  9993
2 10001  90.0000   0.0000 0000000   0.0000  90.0000 14.15679949    18
CTC1_L_00142001-03
1 10002U 23982AZ  26075.70031250  .00000000  00000+0  00000-0 0  9994
2 10002  90.0000   0.0000 0000000   0.0000 180.0000 14.15679949    19
CTC1_L_00142001-04
1 10003U 23578UE  26075.70031250  .00000000  00000+0  00000-0 0  9996
2 10003  90.0000   0.0000 0000000   0.0000 270.0000 14.15679949    10
CTC1_L_00142002-01
1 10004U 22700DU  26075.70031250  .00000000  00000+0  00000-0 0  9993
2 10004  90.0000  12.0000 0000000   0.0000  12.0000 14.15679949    18
CTC1_L_00142002-02
1 10005U 25040AA  26075.70031250  .00000000  00000+0  00000-0 0  9994
2 10005  90.0000  12.0000 0000000   0.0000 102.0000 14.15679949    19
CTC1_L_00142002-03
1 10006U 24405QK  26075.70031250  .00000000  00000+0  00000-0 0  9999
2 10006  90.0000  12.0000 0000000   0.0000 192.0000 14.15679949    19
CTC1_L_00142002-04
1 10007U 23018JE  26075.70031250  .00000000  00000+0  00000-0 0  9999
2 10007  90.0000  12.0000 0000000   0.0000 282.0000 14.15679949    10
CTC1_L_00142003-01
1 10008U 26796BK  26075.70031250  .00000000  00000+0  00000-0 0  9996
2 10008  90.0000  24.0000 0000000   0.0000  24.0000 14.15679949    18
CTC1_L_00142003-02
1 10009U 26121SS  26075.70031250  .00000000  00000+0  00000-0 0  9999
2 10009  90.0000  24.0000 0000000   0.0000 114.0000 14.15679949    19
CTC1_L_00142003-03
1 10010U 26540XR  26075.70031250  .00000000  00000+0  00000-0 0  9996
2 10010  90.0000  24.0000 0000000   0.0000 204.0000 14.15679949    11
CTC1_L_00142003-04
1 10011U 26562CZ  26075.70031250  .00000000  00000+0  00000-0 0  9991
2 10011  90.0000  24.0000 0000000   0.0000 294.0000 14.15679949    11
CTC1_L_00142004-01
1 10012U 26605UR  26075.70031250  .00000000  00000+0  00000-0 0  9990
2 10012  90.0000  36.0000 0000000   0.0000  36.0000 14.15679949    19
CTC1_L_00142004-02
1 10013U 26086XB  26075.70031250  .00000000  00000+0  00000-0 0  9994
2 10013  90.0000  36.0000 0000000   0.0000 126.0000 14.15679949    10
CTC1_L_00142004-03
1 10014U 22618MV  26075.70031250  .00000000  00000+0  00000-0 0  9992
2 10014  90.0000  36.0000 0000000   0.0000 216.0000 14.15679949    11
CTC1_L_00142004-04
1 10015U 26704NW  26075.70031250  .00000000  00000+0  00000-0 0  9993
2 10015  90.0000  36.0000 0000000   0.0000 306.0000 14.15679949    12
CTC1_L_00142005-01
1 10016U 24388EB  26075.70031250  .00000000  00000+0  00000-0 0  9990
2 10016  90.0000  48.0000 0000000   0.0000  48.0000 14.15679949    19
CTC1_L_00142005-02
1 10017U 26521ZR  26075.70031250  .00000000  00000+0  00000-0 0  9992
2 10017  90.0000  48.0000 0000000   0.0000 138.0000 14.15679949    10
CTC1_L_00142005-03
1 10018U 22588SD  26075.70031250  .00000000  00000+0  00000-0 0  9992
2 10018  90.0000  48.0000 0000000   0.0000 228.0000 14.15679949    11
CTC1_L_00142005-04
1 10019U 24245UO  26075.70031250  .00000000  00000+0  00000-0 0  9995
2 10019  90.0000  48.0000 0000000   0.0000 318.0000 14.15679949    12
CTC1_L_00142006-01
1 10020U 23966UY  26075.70031250  .00000000  00000+0  00000-0 0  9996
2 10020  90.0000  60.0000 0000000   0.0000  60.0000 14.15679949    12
CTC1_L_00142006-02
1 10021U 24705EJ  26075.70031250  .00000000  00000+0  00000-0 0  9999
2 10021  90.0000  60.0000 0000000   0.0000 150.0000 14.15679949    13
CTC1_L_00142006-03
1 10022U 24128S   26075.70031250  .00000000  00000+0  00000-0 0  9999
2 10022  90.0000  60.0000 0000000   0.0000 240.0000 14.15679949    14
CTC1_L_00142006-04
1 10023U 24420SR  26075.70031250  .00000000  00000+0  00000-0 0  9995
2 10023  90.0000  60.0000 0000000   0.0000 330.0000 14.15679949    15
CTC1_L_00142007-01
1 10024U 24955PA  26075.70031250  .00000000  00000+0  00000-0 0  9999
2 10024  90.0000  72.0000 0000000   0.0000  72.0000 14.15679949    12
CTC1_L_00142007-02
1 10025U 25871GI  26075.70031250  .00000000  00000+0  00000-0 0  9998
2 10025  90.0000  72.0000 0000000   0.0000 162.0000 14.15679949    13
CTC1_L_00142007-03
1 10026U 26719CA  26075.70031250  .00000000  00000+0  00000-0 0  9991
2 10026  90.0000  72.0000 0000000   0.0000 252.0000 14.15679949    14
CTC1_L_00142007-04
1 10027U 24886GG  26075.70031250  .00000000  00000+0  00000-0 0  9995
2 10027  90.0000  72.0000 0000000   0.0000 342.0000 14.15679949    15
CTC1_L_00142008-01
1 10028U 25838RG  26075.70031250  .00000000  00000+0  00000-0 0  9994
2 10028  90.0000  84.0000 0000000   0.0000  84.0000 14.15679949    12
CTC1_L_00142008-02
1 10029U 23930AT  26075.70031250  .00000000  00000+0  00000-0 0  9996
2 10029  90.0000  84.0000 0000000   0.0000 174.0000 14.15679949    13
CTC1_L_00142008-03
1 10030U 22300GC  26075.70031250  .00000000  00000+0  00000-0 0  9998
2 10030  90.0000  84.0000 0000000   0.0000 264.0000 14.15679949    15
CTC1_L_00142008-04
1 10031U 23452OZ  26075.70031250  .00000000  00000+0  00000-0 0  9998
2 10031  90.0000  84.0000 0000000   0.0000 354.0000 14.15679949    16
CTC1_L_00142009-01
1 10032U 26060XW  26075.70031250  .00000000  00000+0  00000-0 0  9997
2 10032  90.0000  96.0000 0000000   0.0000  96.0000 14.15679949    13
CTC1_L_00142009-02
1 10033U 26602LB  26075.70031250  .00000000  00000+0  00000-0 0  9990
2 10033  90.0000  96.0000 0000000   0.0000 186.0000 14.15679949    14
CTC1_L_00142009-03
1 10034U 23441OO  26075.70031250  .00000000  00000+0  00000-0 0  9999
2 10034  90.0000  96.0000 0000000   0.0000 276.0000 14.15679949    15
CTC1_L_00142009-04
1 10035U 23115WI  26075.70031250  .00000000  00000+0  00000-0 0  9998
2 10035  90.0000  96.0000 0000000   0.0000   6.0000 14.15679949    17
CTC1_L_00142010-01
1 10036U 22511QK  26075.70031250  .00000000  00000+0  00000-0 0  9998
2 10036  90.0000 108.0000 0000000   0.0000 108.0000 14.15679949    15
CTC1_L_00142010-02
1 10037U 26102RH  26075.70031250  .00000000  00000+0  00000-0 0  9999
2 10037  90.0000 108.0000 0000000   0.0000 198.0000 14.15679949    15
CTC1_L_00142010-03
1 10038U 25956XC  26075.70031250  .00000000  00000+0  00000-0 0  9996
2 10038  90.0000 108.0000 0000000   0.0000 288.0000 14.15679949    16
CTC1_L_00142010-04
1 10039U 26957RJ  26075.70031250  .00000000  00000+0  00000-0 0  9999
2 10039  90.0000 108.0000 0000000   0.0000  18.0000 14.15679949    18
CTC1_L_00142011-01
1 10040U 23867TE  26075.70031250  .00000000  00000+0  00000-0 0  9998
2 10040  90.0000 120.0000 0000000   0.0000 120.0000 14.15679949    18
CTC1_L_00142011-02
1 10041U 26390EH  26075.70031250  .00000000  00000+0  00000-0 0  9993
2 10041  90.0000 120.0000 0000000   0.0000 210.0000 14.15679949    19
CTC1_L_00142011-03
1 10042U 23869QI  26075.70031250  .00000000  00000+0  00000-0 0  9992
2 10042  90.0000 120.0000 0000000   0.0000 300.0000 14.15679949    10
CTC1_L_00142011-04
1 10043U 26893TX  26075.70031250  .00000000  00000+0  00000-0 0  9993
2 10043  90.0000 120.0000 0000000   0.0000  30.0000 14.15679949    11
CTC1_L_00142012-01
1 10044U 23294MC  26075.70031250  .00000000  00000+0  00000-0 0  9996
2 10044  90.0000 132.0000 0000000   0.0000 132.0000 14.15679949    18
CTC1_L_00142012-02
1 10045U 22314KE  26075.70031250  .00000000  00000+0  00000-0 0  9999
2 10045  90.0000 132.0000 0000000   0.0000 222.0000 14.15679949    19
CTC1_L_00142012-03
1 10046U 26649YW  26075.70031250  .00000000  00000+0  00000-0 0  9995
2 10046  90.0000 132.0000 0000000   0.0000 312.0000 14.15679949    10
CTC1_L_00142012-04
1 10047U 22569VQ  26075.70031250  .00000000  00000+0  00000-0 0  9993
2 10047  90.0000 132.0000 0000000   0.0000  42.0000 14.15679949    11
CTC1_L_00142013-01
1 10048U 25734G   26075.70031250  .00000000  00000+0  00000-0 0  9991
2 10048  90.0000 144.0000 0000000   0.0000 144.0000 14.15679949    18
CTC1_L_00142013-02
1 10049U 22075AB  26075.70031250  .00000000  00000+0  00000-0 0  9997
2 10049  90.0000 144.0000 0000000   0.0000 234.0000 14.15679949    19
CTC1_L_00142013-03
1 10050U 25692JH  26075.70031250  .00000000  00000+0  00000-0 0  9997
2 10050  90.0000 144.0000 0000000   0.0000 324.0000 14.15679949    11
CTC1_L_00142013-04
1 10051U 22390OR  26075.70031250  .00000000  00000+0  00000-0 0  9990
2 10051  90.0000 144.0000 0000000   0.0000  54.0000 14.15679949    12
CTC1_L_00142014-01
1 10052U 22687CN  26075.70031250  .00000000  00000+0  00000-0 0  9990
2 10052  90.0000 156.0000 0000000   0.0000 156.0000 14.15679949    19
CTC1_L_00142014-02
1 10053U 23395NR  26075.70031250  .00000000  00000+0  00000-0 0  9998
2 10053  90.0000 156.0000 0000000   0.0000 246.0000 14.15679949    10
CTC1_L_00142014-03
1 10054U 26772RP  26075.70031250  .00000000  00000+0  00000-0 0  9991
2 10054  90.0000 156.0000 0000000   0.0000 336.0000 14.15679949    11
CTC1_L_00142014-04
1 10055U 24095JB  26075.70031250  .00000000  00000+0  00000-0 0  9998
2 10055  90.0000 156.0000 0000000   0.0000  66.0000 14.15679949    12
CTC1_L_00142015-01
1 10056U 24883DG  26075.70031250  .00000000  00000+0  00000-0 0  9994
2 10056  90.0000 168.0000 0000000   0.0000 168.0000 14.15679949    19
CTC1_L_00142015-02
1 10057U 26012PI  26075.70031250  .00000000  00000+0  00000-0 0  9991
2 10057  90.0000 168.0000 0000000   0.0000 258.0000 14.15679949    10
CTC1_L_00142015-03
1 10058U 22513NK  26075.70031250  .00000000  00000+0  00000-0 0  9994
2 10058  90.0000 168.0000 0000000   0.0000 348.0000 14.15679949    11
CTC1_L_00142015-04
1 10059U 23714AG  26075.70031250  .00000000  00000+0  00000-0 0  9999
2 10059  90.0000 168.0000 0000000   0.0000  78.0000 14.15679949    12
CTC1_L_00142016-01
1 10060U 23116YC  26075.70031250  .00000000  00000+0  00000-0 0  9997
2 10060  90.0000 180.0000 0000000   0.0000 180.0000 14.15679949    12
CTC1_L_00142016-02
1 10061U 25622HJ  26075.70031250  .00000000  00000+0  00000-0 0  9992
2 10061  90.0000 180.0000 0000000   0.0000 270.0000 14.15679949    13
